[{"OBJECT_NAME":"YAOGAN-36 02A","OBJECT_ID":"2022-133A","EPOCH":"2026-03-10T00:04:36.049728","MEAN_MOTION":15.23118612,"ECCENTRICITY":0.00301484,"INCLINATION":35.0077,"RA_OF_ASC_NODE":23.5078,"ARG_OF_PERICENTER":29.898,"MEAN_ANOMALY":330.345,"EPHEMERIS_TYPE":0,"CLASSIFICATION_TYPE":"U","NORAD_CAT_ID":54042,"ELEMENT_SET_NO":999,"REV_AT_EPOCH":18962,"BSTAR":0.00070143583,"MEAN_MOTION_DOT":0.00017174,"MEAN_MOTION_DDOT":0},{"OBJECT_NAME":"STARLINK-31201","OBJECT_ID":"2024-019T","EPOCH":"2026-03-09T12:52:07.114080","MEAN_MOTION":15.27575777,"ECCENTRICITY":9.156e-5,"INCLINATION":42.9976,"RA_OF_ASC_NODE":249.384,"ARG_OF_PERICENTER":277.148,"MEAN_ANOMALY":82.9267,"EPHEMERIS_TYPE":0,"CLASSIFICATION_TYPE":"U","NORAD_CAT_ID":58870,"ELEMENT_SET_NO":999,"REV_AT_EPOCH":11904,"BSTAR":-3.522699e-6,"MEAN_MOTION_DOT":-3.59e-6,"MEAN_MOTION_DDOT":0}]
